NORAD_CAT_ID,OBJECT_NAME,OBJECT_TYPE,EPOCH,MEAN_MOTION,ECCENTRICITY,INCLINATION,RA_OF_ASC_NODE,ARG_OF_PERICENTER,MEAN_ANOMALY,BSTAR,MEAN_MOTION_DOT,MEAN_MOTION_DDOT,TLE_LINE0,TLE_LINE1,TLE_LINE2,SEMIMAJOR_AXIS,PERIOD,APOGEE,PERIGEE,DECAYED
53267.0,STARLINK-4060,PAYLOAD,2024-03-01 19:15:44,15.08838919,0.0001255,53.2165,266.6239,89.2095,270.9041,6.9709e-05,8.22e-06,0.0,0 STARLINK-4060,1 53267U 22086AB  24061.80259278  .00000822  00000-0  69709-4 0  9992,2 53267  53.2165 266.6239 0001255  89.2095 270.9041 15.08838919 89672,6917.884,95.438,540.617,538.88,0.0
53267.0,STARLINK-4060,PAYLOAD,2024-03-02 19:06:30,15.08843019,0.0001234,53.2163,262.1633,94.0875,266.0258,8.7208e-05,1.1e-05,0.0,0 STARLINK-4060,1 53267U 22086AB  24062.79619068  .00001100  00000-0  87208-4 0  9992,2 53267  53.2163 262.1633 0001234  94.0875 266.0258 15.08843019 89646,6917.871,95.437,540.59,538.882,0.0
53267.0,STARLINK-4060,PAYLOAD,2024-03-02 20:41:54,15.08842902,0.0001224,53.2163,261.8658,92.6165,267.4967,8.3926e-05,1.048e-05,0.0,0 STARLINK-4060,1 53267U 22086AB  24062.86243073  .00001048  00000-0  83926-4 0  9993,2 53267  53.2163 261.8658 0001224  92.6165 267.4967 15.08842902 89837,6917.872,95.437,540.583,538.89,0.0
53267.0,STARLINK-4060,PAYLOAD,2024-03-03 20:32:41,15.0884149,0.0001288,53.2163,257.4046,81.7116,278.4022,4.7988e-05,4.76e-06,0.0,0 STARLINK-4060,1 53267U 22086AB  24063.85603331  .00000476  00000-0  47988-4 0  9992,2 53267  53.2163 257.4046 0001288  81.7116 278.4022 15.08841490 89985,6917.876,95.437,540.632,538.85,0.0
53267.0,STARLINK-4060,PAYLOAD,2024-03-03 22:08:04,15.08844161,0.0001352,53.2166,257.1027,77.1866,282.9278,6.8999e-05,8.1e-06,0.0,0 STARLINK-4060,1 53267U 22086AB  24063.92227096  .00000810  00000-0  68999-4 0  9997,2 53267  53.2166 257.1027 0001352  77.1866 282.9278 15.08844161 89810,6917.868,95.437,540.668,538.797,0.0
53267.0,STARLINK-4060,PAYLOAD,2024-03-04 18:48:04,15.0884749,0.0001274,53.2163,253.2415,84.831,275.2828,9.9947e-05,1.303e-05,0.0,0 STARLINK-4060,1 53267U 22086AB  24064.78338490  .00001303  00000-0  99947-4 0  9998,2 53267  53.2163 253.2415 0001274  84.8310 275.2828 15.08847490 90127,6917.857,95.437,540.604,538.841,0.0
53267.0,STARLINK-4060,PAYLOAD,2024-03-05 12:17:19,15.08842086,0.0001253,53.2161,249.9708,83.4918,276.6217,2.4907e-05,1.09e-06,0.0,0 STARLINK-4060,1 53267U 22086AB  24065.51202965  .00000109  00000-0  24907-4 0  9994,2 53267  53.2161 249.9708 0001253  83.4918 276.6217 15.08842086 90233,6917.874,95.437,540.606,538.872,0.0
53267.0,STARLINK-4060,PAYLOAD,2024-03-05 18:38:52,15.08835201,0.000115,53.2157,248.7785,87.1471,272.9652,-3.5276e-05,-8.49e-06,0.0,0 STARLINK-4060,1 53267U 22086AB  24065.77699521 -.00000849  00000-0 -35276-4 0  9994,2 53267  53.2157 248.7785 0001150  87.1471 272.9652 15.08835201 90098,6917.895,95.438,540.556,538.964,0.0
53267.0,STARLINK-4060,PAYLOAD,2024-03-06 12:08:06,15.08840593,0.0001346,53.2169,245.5096,91.2228,268.8918,-8.4023e-05,-1.625e-05,0.0,0 STARLINK-4060,1 53267U 22086AB  24066.50563603 -.00001625  00000-0 -84023-4 0  9994,2 53267  53.2169 245.5096 0001346  91.2228 268.8918 15.08840593 90385,6917.879,95.438,540.675,538.812,0.0
53267.0,STARLINK-4060,PAYLOAD,2024-03-07 11:58:54,15.088314,0.0001452,53.2163,241.0489,98.9768,261.1389,0.0001533,2.152e-05,0.0,0 STARLINK-4060,1 53267U 22086AB  24067.49923674  .00002152  00000-0  15330-3 0  9999,2 53267  53.2163 241.0489 0001452  98.9768 261.1389 15.08831400 90539,6917.907,95.438,540.776,538.767,0.0
53267.0,STARLINK-4060,PAYLOAD,2024-03-08 03:52:45,15.08842973,0.0001287,53.2166,238.0763,93.0568,267.0572,0.00018058,2.587e-05,0.0,0 STARLINK-4060,1 53267U 22086AB  24068.16163258  .00002587  00000-0  18058-3 0  9990,2 53267  53.2166 238.0763 0001287  93.0568 267.0572 15.08842973 90450,6917.871,95.437,540.627,538.846,0.0
53267.0,STARLINK-4060,PAYLOAD,2024-03-08 10:14:18,15.08837744,0.0001753,53.2169,236.8875,93.7614,266.3579,0.00014933,2.089e-05,0.0,0 STARLINK-4060,1 53267U 22086AB  24068.42659934  .00002089  00000-0  14933-3 0  9995,2 53267  53.2169 236.8875 0001753  93.7614 266.3579 15.08837744 90493,6917.887,95.438,540.965,538.54,0.0
53267.0,STARLINK-4060,PAYLOAD,2024-03-08 18:11:14,15.08832137,0.0001396,53.2169,235.4005,98.7402,261.3748,5.6184e-05,6.06e-06,0.0,0 STARLINK-4060,1 53267U 22086AB  24068.75780613  .00000606  00000-0  56184-4 0  9998,2 53267  53.2169 235.4005 0001396  98.7402 261.3748 15.08832137 90546,6917.904,95.438,540.735,538.804,0.0
53267.0,STARLINK-4060,PAYLOAD,2024-03-09 03:43:32,15.08842336,0.00011,53.2172,233.6172,102.0116,258.0999,0.00012675,1.73e-05,0.0,0 STARLINK-4060,1 53267U 22086AB  24069.15523828  .00001730  00000-0  12675-3 0  9991,2 53267  53.2172 233.6172 0001100 102.0116 258.0999 15.08842336 90609,6917.873,95.437,540.499,538.977,0.0
53267.0,STARLINK-4060,PAYLOAD,2024-03-09 11:40:28,15.08837213,0.0001456,53.2175,232.1285,97.8214,262.2943,9.4421e-05,1.215e-05,0.0,0 STARLINK-4060,1 53267U 22086AB  24069.48644404  .00001215  00000-0  94421-4 0  9999,2 53267  53.2175 232.1285 0001456  97.8214 262.2943 15.08837213 90834,6917.889,95.438,540.761,538.747,0.0
53267.0,STARLINK-4060,PAYLOAD,2024-03-09 18:02:01,15.08840758,0.000147,53.2172,230.9411,99.7272,260.3887,8.3673e-05,1.044e-05,0.0,0 STARLINK-4060,1 53267U 22086AB  24069.75140221  .00001044  00000-0  83673-4 0  9994,2 53267  53.2172 230.9411 0001470  99.7272 260.3887 15.08840758 90877,6917.878,95.438,540.76,538.726,0.0
53267.0,STARLINK-4060,PAYLOAD,2024-03-10 06:45:06,15.08825138,0.0001064,53.2088,228.5568,63.9176,296.1926,0.00035114,5.303e-05,0.0,0 STARLINK-4060,1 53267U 22086AB  24070.28132178  .00005303  00000-0  35114-3 0  9994,2 53267  53.2088 228.5568 0001064  63.9176 296.1926 15.08825138 90779,6917.926,95.438,540.527,539.055,0.0
53267.0,STARLINK-4060,PAYLOAD,2024-03-10 19:28:11,15.08832554,7.77e-05,53.2137,226.1801,64.154,295.9532,7.8768e-05,9.66e-06,0.0,0 STARLINK-4060,1 53267U 22086AB  24070.81124828  .00000966  00000-0  78768-4 0  9999,2 53267  53.2137 226.1801 0000777  64.1540 295.9532 15.08832554 91036,6917.903,95.438,540.306,539.231,0.0
53267.0,STARLINK-4060,PAYLOAD,2024-03-11 03:25:06,15.0885608,8.07e-05,53.2159,224.6922,7.5625,352.5379,-5.724e-05,-1.199e-05,0.0,0 STARLINK-4060,1 53267U 22086AB  24071.14243546 -.00001199  00000-0 -57240-4 0  9998,2 53267  53.2159 224.6922 0000807   7.5625 352.5379 15.08856080 90900,6917.831,95.437,540.255,539.138,0.0
53267.0,STARLINK-4060,PAYLOAD,2024-03-11 19:18:56,15.08870552,3.89e-05,53.2153,221.7184,67.5736,292.5297,0.0003035,4.55e-05,0.0,0 STARLINK-4060,1 53267U 22086AB  24071.80481803  .00004550  00000-0  30350-3 0  9995,2 53267  53.2153 221.7184 0000389  67.5736 292.5297 15.08870552 91000,6917.787,95.436,539.921,539.383,0.0
53267.0,STARLINK-4060,PAYLOAD,2024-03-12 09:37:26,15.08827402,0.0001504,53.2128,219.0425,93.5917,266.5247,0.00030401,4.552e-05,0.0,0 STARLINK-4060,1 53267U 22086AB  24072.40100553  .00004552  00000-0  30401-3 0  9991,2 53267  53.2128 219.0425 0001504  93.5917 266.5247 15.08827402 91091,6917.919,95.438,540.824,538.743,0.0
53267.0,STARLINK-4060,PAYLOAD,2024-03-12 15:58:59,15.08831496,8.77e-05,53.2154,217.8526,87.1408,272.9684,0.00013696,1.892e-05,0.0,0 STARLINK-4060,1 53267U 22086AB  24072.66596855  .00001892  00000-0  13696-3 0  9994,2 53267  53.2154 217.8526 0000877  87.1408 272.9684 15.08831496 91313,6917.906,95.438,540.378,539.165,0.0
53267.0,STARLINK-4060,PAYLOAD,2024-03-13 03:06:41,15.08844678,0.0001751,53.2163,215.7712,91.2885,268.8308,4.3927e-05,4.11e-06,0.0,0 STARLINK-4060,1 53267U 22086AB  24073.12964251  .00000411  00000-0  43927-4 0  9992,2 53267  53.2163 215.7712 0001751  91.2885 268.8308 15.08844678 91205,6917.866,95.437,540.942,538.52,0.0
53267.0,STARLINK-4060,PAYLOAD,2024-03-13 12:39:00,15.08828657,8.69e-05,53.2187,213.9847,118.9308,241.1771,0.00015868,2.238e-05,0.0,0 STARLINK-4060,1 53267U 22086AB  24073.52708706  .00002238  00000-0  15868-3 0  9998,2 53267  53.2187 213.9847 0000869 118.9308 241.1771 15.08828657 91269,6917.915,95.438,540.381,539.179,0.0
53267.0,STARLINK-4060,PAYLOAD,2024-03-13 15:49:47,15.08828414,0.0001435,53.2166,213.3945,81.8083,278.3071,-2.4447e-05,-6.77e-06,0.0,0 STARLINK-4060,1 53267U 22086AB  24073.65957568 -.00000677  00000-0 -24447-4 0  9995,2 53267  53.2166 213.3945 0001435  81.8083 278.3071 15.08828414 91285,6917.916,95.438,540.774,538.788,0.0
53267.0,STARLINK-4060,PAYLOAD,2024-03-14 12:29:47,15.0884,0.0001251,53.2191,209.5288,83.9768,276.1367,0.00010472,1.379e-05,0.0,0 STARLINK-4060,1 53267U 22086AB  24074.52068734  .00001379  00000-0  10472-3 0  9990,2 53267  53.2191 209.5288 0001251  83.9768 276.1367 15.08840000 91413,6917.88,95.438,540.611,538.88,0.0
53267.0,STARLINK-4060,PAYLOAD,2024-03-15 12:20:34,15.08840799,0.0001639,53.2157,205.0624,107.8641,252.253,0.0001188,1.603e-05,0.0,0 STARLINK-4060,1 53267U 22086AB  24075.51428554  .00001603  00000-0  11880-3 0  9994,2 53267  53.2157 205.0624 0001639 107.8641 252.2530 15.08840799 91744,6917.878,95.438,540.877,538.609,0.0
53267.0,STARLINK-4060,PAYLOAD,2024-03-16 12:11:21,15.08839928,0.0001914,53.2141,200.5949,123.3365,236.7811,1.0788e-05,-1.16e-06,0.0,0 STARLINK-4060,1 53267U 22086AB  24076.50788799 -.00000116  00000-0  10788-4 0  9990,2 53267  53.2141 200.5949 0001914 123.3365 236.7811 15.08839928 91717,6917.881,95.438,541.07,538.422,0.0
53267.0,STARLINK-4060,PAYLOAD,2024-03-16 13:46:44,15.0883932,0.0001558,53.2168,200.3029,110.9717,249.1442,-7.4275e-06,-4.06e-06,0.0,0 STARLINK-4060,1 53267U 22086AB  24076.57412994 -.00000406  00000-0 -74275-5 0  9993,2 53267  53.2168 200.3029 0001558 110.9717 249.1442 15.08839320 91905,6917.882,95.438,540.825,538.67,0.0
53267.0,STARLINK-4060,PAYLOAD,2024-03-16 15:22:08,15.08789041,0.0001835,53.2168,200.0102,107.1303,252.989,0.00069259,0.00010736,0.0,0 STARLINK-4060,1 53267U 22086AB  24076.64038182  .00010736  00000-0  69259-3 0  9993,2 53267  53.2168 200.0102 0001835 107.1303 252.9890 15.08789041 91735,6918.036,95.441,541.171,538.632,0.0
